NORAD_CAT_ID,OBJECT_NAME,OBJECT_TYPE,EPOCH,MEAN_MOTION,ECCENTRICITY,INCLINATION,RA_OF_ASC_NODE,ARG_OF_PERICENTER,MEAN_ANOMALY,BSTAR,MEAN_MOTION_DOT,MEAN_MOTION_DDOT,TLE_LINE0,TLE_LINE1,TLE_LINE2,SEMIMAJOR_AXIS,PERIOD,APOGEE,PERIGEE,DECAYED
52843.0,STARLINK-4188,PAYLOAD,2023-08-06 00:25:17,15.08853048,0.0001057,53.2165,323.8983,103.2818,256.8292,0.0011491,0.00018054,0.0,0 STARLINK-4188,1 52843U 22062P   23218.01755926  .00018054  00000-0  11491-2 0  9991,2 52843  53.2165 323.8983 0001057 103.2818 256.8292 15.08853048 63362,6917.841,95.437,540.437,538.974,0.0
52843.0,STARLINK-4188,PAYLOAD,2023-08-06 09:57:36,15.08816778,9.98e-05,53.216,322.1143,124.2252,235.8835,0.00063531,9.831e-05,0.0,0 STARLINK-4188,1 52843U 22062P   23218.41500671  .00009831  00000-0  63531-3 0  9996,2 52843  53.2160 322.1143 0000998 124.2252 235.8835 15.08816778 63421,6917.951,95.439,540.507,539.126,0.0
52843.0,STARLINK-4188,PAYLOAD,2023-08-07 00:16:05,15.08834479,8.99e-05,53.2163,319.4381,106.6197,253.4894,0.0014406,0.0002271,0.0,0 STARLINK-4188,1 52843U 22062P   23219.01117350  .00022710  00000-0  14406-2 0  9998,2 52843  53.2163 319.4381 0000899 106.6197 253.4894 15.08834479 63518,6917.897,95.438,540.384,539.14,0.0
52843.0,STARLINK-4188,PAYLOAD,2023-08-08 00:06:52,15.08851621,0.0001478,53.217,314.9776,73.805,286.3105,0.00094065,0.00014719,0.0,0 STARLINK-4188,1 52843U 22062P   23220.00477166  .00014719  00000-0  94065-3 0  9993,2 52843  53.2170 314.9776 0001478  73.8050 286.3105 15.08851621 63665,6917.845,95.437,540.732,538.687,0.0
52843.0,STARLINK-4188,PAYLOAD,2023-08-08 16:00:43,15.08858754,9.95e-05,53.2168,312.0038,84.7819,275.3287,0.0014026,0.00022116,0.0,0 STARLINK-4188,1 52843U 22062P   23220.66716632  .00022116  00000-0  14026-2 0  9997,2 52843  53.2168 312.0038 0000995  84.7819 275.3287 15.08858754 63763,6917.823,95.436,540.376,539.0,0.0
52843.0,STARLINK-4188,PAYLOAD,2023-08-09 09:29:57,15.08841307,7.94e-05,53.2167,308.733,91.0529,269.0554,0.00031885,4.791e-05,0.0,0 STARLINK-4188,1 52843U 22062P   23221.39580912  .00004791  00000-0  31885-3 0  9990,2 52843  53.2167 308.7330 0000794  91.0529 269.0554 15.08841307 63870,6917.876,95.437,540.291,539.192,0.0
52843.0,STARLINK-4188,PAYLOAD,2023-08-10 09:20:45,15.08845139,8.56e-05,53.2169,304.2725,90.9642,269.1448,0.00045428,6.95e-05,0.0,0 STARLINK-4188,1 52843U 22062P   23222.38941019  .00006950  00000-0  45428-3 0  9996,2 52843  53.2169 304.2725 0000856  90.9642 269.1448 15.08845139 64022,6917.865,95.437,540.322,539.138,0.0
52843.0,STARLINK-4188,PAYLOAD,2023-08-10 22:03:49,15.08838215,8.17e-05,53.2172,301.8931,93.4316,266.677,-4.1125e-05,-9.42e-06,0.0,0 STARLINK-4188,1 52843U 22062P   23222.91932865 -.00000942  00000-0 -41125-4 0  9992,2 52843  53.2172 301.8931 0000817  93.4316 266.6770 15.08838215 64107,6917.886,95.438,540.316,539.186,0.0
52843.0,STARLINK-4188,PAYLOAD,2023-08-11 15:33:04,15.08850924,8.65e-05,53.2166,298.6229,92.8242,267.2849,0.00051377,7.901e-05,0.0,0 STARLINK-4188,1 52843U 22062P   23223.64796619  .00007901  00000-0  51377-3 0  9997,2 52843  53.2166 298.6229 0000865  92.8242 267.2849 15.08850924 64214,6917.847,95.437,540.31,539.114,0.0
52843.0,STARLINK-4188,PAYLOAD,2023-08-11 21:54:36,15.08843725,7.83e-05,53.2169,297.432,78.5142,281.5938,0.00030453,4.563e-05,0.0,0 STARLINK-4188,1 52843U 22062P   23223.91292754  .00004563  00000-0  30453-3 0  9991,2 52843  53.2169 297.4320 0000783  78.5142 281.5938 15.08843725 64258,6917.869,95.437,540.276,539.192,0.0
52843.0,STARLINK-4188,PAYLOAD,2023-08-12 10:37:42,15.08836743,9.4e-05,53.2168,295.0549,89.0807,271.0293,9.9398e-06,-1.3e-06,0.0,0 STARLINK-4188,1 52843U 22062P   23224.44285131 -.00000130  00000-0  99398-5 0  9993,2 52843  53.2168 295.0549 0000940  89.0807 271.0293 15.08836743 64333,6917.89,95.438,540.406,539.105,0.0
52843.0,STARLINK-4188,PAYLOAD,2023-08-13 16:50:01,15.0885136,8.74e-05,53.2158,289.4039,85.831,274.2782,0.00032061,4.82e-05,0.0,0 STARLINK-4188,1 52843U 22062P   23225.70140758  .00004820  00000-0  32061-3 0  9999,2 52843  53.2158 289.4039 0000874  85.8310 274.2782 15.08851360 64523,6917.846,95.437,540.315,539.106,0.0
52843.0,STARLINK-4188,PAYLOAD,2023-08-13 21:36:11,15.08845969,9.49e-05,53.2161,288.5126,78.9859,281.124,0.00031025,4.654e-05,0.0,0 STARLINK-4188,1 52843U 22062P   23225.90013129  .00004654  00000-0  31025-3 0  9996,2 52843  53.2161 288.5126 0000949  78.9859 281.1240 15.08845969 64555,6917.862,95.437,540.384,539.071,0.0
52843.0,STARLINK-4188,PAYLOAD,2023-08-14 10:19:16,15.088422,0.0001092,53.2167,286.1335,82.0445,278.0671,0.0001794,2.569e-05,0.0,0 STARLINK-4188,1 52843U 22062P   23226.43005267  .00002569  00000-0  17940-3 0  9992,2 52843  53.2167 286.1335 0001092  82.0445 278.0671 15.08842200 64631,6917.874,95.437,540.494,538.983,0.0
52843.0,STARLINK-4188,PAYLOAD,2023-08-15 14:56:12,15.08854948,0.0001054,53.2163,280.7796,88.7725,271.3388,7.6337e-05,9.28e-06,0.0,0 STARLINK-4188,1 52843U 22062P   23227.62236527  .00000928  00000-0  76337-4 0  9992,2 52843  53.2163 280.7796 0001054  88.7725 271.3388 15.08854948 64813,6917.835,95.437,540.429,538.971,0.0
52843.0,STARLINK-4188,PAYLOAD,2023-08-15 21:17:45,15.08844785,0.0001154,53.2177,279.5911,58.0127,302.0977,0.00027973,4.167e-05,0.0,0 STARLINK-4188,1 52843U 22062P   23227.88733214  .00004167  00000-0  27973-3 0  9995,2 52843  53.2177 279.5911 0001154  58.0127 302.0977 15.08844785 64858,6917.866,95.437,540.529,538.932,0.0
52843.0,STARLINK-4188,PAYLOAD,2023-08-16 14:46:59,15.08842082,0.0001143,53.2164,276.3186,100.9166,259.1955,0.000203,2.945e-05,0.0,0 STARLINK-4188,1 52843U 22062P   23228.61597181  .00002945  00000-0  20300-3 0  9997,2 52843  53.2164 276.3186 0001143 100.9166 259.1955 15.08842082 64969,6917.874,95.437,540.53,538.948,0.0
52843.0,STARLINK-4188,PAYLOAD,2023-08-17 19:23:56,15.08841399,0.0001085,53.2153,270.9647,83.6412,276.4703,7.1502e-05,8.5e-06,0.0,0 STARLINK-4188,1 52843U 22062P   23229.80829209  .00000850  00000-0  71502-4 0  9992,2 52843  53.2153 270.9647 0001085  83.6412 276.4703 15.08841399 65149,6917.876,95.437,540.492,538.991,0.0
52843.0,STARLINK-4188,PAYLOAD,2023-08-19 01:36:16,15.08834448,0.0001097,53.2156,265.3173,92.5448,267.567,1.5817e-05,-3.6e-07,0.0,0 STARLINK-4188,1 52843U 22062P   23231.06685740 -.00000036  00000-0  15817-4 0  9997,2 52843  53.2156 265.3173 0001097  92.5448 267.5670 15.08834448 65337,6917.897,95.438,540.521,539.003,0.0
52843.0,STARLINK-4188,PAYLOAD,2023-08-20 09:23:59,15.08840273,0.0001265,53.2168,259.3703,87.8387,272.275,9.0349e-05,1.15e-05,0.0,0 STARLINK-4188,1 52843U 22062P   23232.39166005  .00001150  00000-0  90349-4 0  9992,2 52843  53.2168 259.3703 0001265  87.8387 272.2750 15.08840273 65535,6917.88,95.438,540.62,538.869,0.0
52843.0,STARLINK-4188,PAYLOAD,2023-08-22 10:40:56,15.0884502,0.0001123,53.2158,250.1506,90.2955,269.8166,8.9194e-05,1.132e-05,0.0,0 STARLINK-4188,1 52843U 22062P   23234.44509694  .00001132  00000-0  89194-4 0  9991,2 52843  53.2158 250.1506 0001123  90.2955 269.8166 15.08845020 65848,6917.865,95.437,540.507,538.953,0.0
52843.0,STARLINK-4188,PAYLOAD,2023-08-23 04:10:11,15.08840656,0.0001104,53.2152,246.8794,88.0781,272.0338,5.6575e-05,6.13e-06,0.0,0 STARLINK-4188,1 52843U 22062P   23235.17373976  .00000613  00000-0  56575-4 0  9994,2 52843  53.2152 246.8794 0001104  88.0781 272.0338 15.08840656 65953,6917.878,95.438,540.507,538.98,0.0
52843.0,STARLINK-4188,PAYLOAD,2023-08-24 11:57:53,15.08839569,0.000135,53.2164,240.9311,104.4404,255.6738,5.396e-05,5.71e-06,0.0,0 STARLINK-4188,1 52843U 22062P   23236.49853997  .00000571  00000-0  53960-4 0  9994,2 52843  53.2164 240.9311 0001350 104.4404 255.6738 15.08839569 65664,6917.882,95.438,540.681,538.813,0.0
52843.0,STARLINK-4188,PAYLOAD,2023-08-25 11:48:40,15.08841626,0.0001374,53.2161,236.4708,104.6369,255.4776,5.932e-05,6.56e-06,0.0,0 STARLINK-4188,1 52843U 22062P   23237.49213911  .00000656  00000-0  59320-4 0  9991,2 52843  53.2161 236.4708 0001374 104.6369 255.4776 15.08841626 65813,6917.875,95.437,540.691,538.79,0.0
52843.0,STARLINK-4188,PAYLOAD,2023-08-26 00:31:46,15.08835039,0.0001352,53.2162,234.0917,102.818,257.2963,5.4796e-05,5.84e-06,0.0,0 STARLINK-4188,1 52843U 22062P   23238.02206464  .00000584  00000-0  54796-4 0  9998,2 52843  53.2162 234.0917 0001352 102.8180 257.2963 15.08835039 66389,6917.896,95.438,540.696,538.825,0.0
52843.0,STARLINK-4188,PAYLOAD,2023-08-26 08:28:41,15.08854368,0.0001322,53.2163,232.606,98.1782,261.936,-9.8318e-05,-1.853e-05,0.0,0 STARLINK-4188,1 52843U 22062P   23238.35325650 -.00001853  00000-0 -98318-4 0  9993,2 52843  53.2163 232.6060 0001322  98.1782 261.9360 15.08854368 66430,6917.836,95.437,540.616,538.787,0.0
52843.0,STARLINK-4188,PAYLOAD,2023-08-27 01:57:56,15.08835744,0.0001418,53.2164,229.3355,103.106,257.009,1.726e-05,-1.3e-07,0.0,0 STARLINK-4188,1 52843U 22062P   23239.08190739 -.00000013  00000-0  17260-4 0  9995,2 52843  53.2164 229.3355 0001418 103.1060 257.0090 15.08835744 66548,6917.893,95.438,540.739,538.777,0.0
52843.0,STARLINK-4188,PAYLOAD,2023-08-27 08:19:29,15.08838434,0.0001405,53.2165,228.1461,96.9247,263.1905,3.4129e-05,2.55e-06,0.0,0 STARLINK-4188,1 52843U 22062P   23239.34686585  .00000255  00000-0  34129-4 0  9993,2 52843  53.2165 228.1461 0001405  96.9247 263.1905 15.08838434 66098,6917.885,95.438,540.722,538.778,0.0
52843.0,STARLINK-4188,PAYLOAD,2023-08-28 08:10:16,15.08842135,0.0001381,53.2164,223.6859,94.8735,265.2415,6.3496e-05,7.23e-06,0.0,0 STARLINK-4188,1 52843U 22062P   23240.34046432  .00000723  00000-0  63496-4 0  9995,2 52843  53.2164 223.6859 0001381  94.8735 265.2415 15.08842135 66733,6917.874,95.437,540.694,538.784,0.0
52843.0,STARLINK-4188,PAYLOAD,2023-08-28 16:07:12,15.08837164,0.0001359,53.2161,222.1983,86.448,273.6668,1.3882e-05,-6.7e-07,0.0,0 STARLINK-4188,1 52843U 22062P   23240.67166931 -.00000067  00000-0  13882-4 0  9994,2 52843  53.2161 222.1983 0001359  86.4480 273.6668 15.08837164 66785,6917.889,95.438,540.694,538.814,0.0
